NIMIQ 2                 
1 27632U 02062A   26177.22899934 -.00000067  00000+0  00000+0 0  9991
2 27632   9.4663  56.8044 0005799  33.0730 157.7329  1.00272349 44272
ANIK F2                 
1 28378U 04027A   26177.22722516 -.00000042  00000+0  00000+0 0  9996
2 28378   3.3106  79.3299 0004262  13.6640 152.0315  1.00272146 41359
ANIK F1R                
1 28868U 05036A   26177.14542661 -.00000068  00000+0  00000+0 0  9991
2 28868   4.3354  76.4732 0004394  11.6528 131.2015  1.00272097 46545
ANIK F3                 
1 31102U 07009A   26176.64401159  .00000008  00000+0  00000+0 0  9991
2 31102   1.2195  83.7665 0002887  13.8764 289.2936  1.00274640 46649
NIMIQ 4                 
1 33373U 08044A   26177.14906012 -.00000209  00000+0  00000+0 0  9991
2 33373   0.0020 355.1568 0001953 113.3467 137.4192  1.00270024 65070
TELSTAR 11N             
1 34111U 09009A   26176.51745373 -.00000241  00000+0  00000+0 0  9991
2 34111   0.0431  81.6963 0002640  12.0931 328.5990  1.00272414 46323
TERRESTAR-1             
1 35496U 09035A   26176.60225259 -.00000051  00000+0  00000+0 0  9992
2 35496   5.1774  48.7939 0002654  39.5475 291.1928  1.00272964 62217
NIMIQ 5                 
1 35873U 09050A   26177.17742307 -.00000246  00000+0  00000+0 0  9995
2 35873   0.0390 272.8691 0002967 172.2677 180.3427  1.00271256 61434
SKYTERRA 1              
1 37218U 10061A   26177.16016714 -.00000112  00000+0  00000+0 0  9991
2 37218   5.1440  50.8477 0002443  23.3204 156.4644  1.00272947 57289
TELSTAR 14R             
1 37602U 11021A   26177.08288742 -.00000269  00000+0  00000+0 0  9991
2 37602   0.0414  80.0369 0002410 350.2021 170.8224  1.00271814 55924
NIMIQ 6                 
1 38342U 12026A   26177.18885088 -.00000163  00000+0  00000+0 0  9999
2 38342   0.0109  32.7967 0002972  58.1139 160.2856  1.00271726 50507
ANIK G1                 
1 39127U 13014A   26177.22923443 -.00000063  00000+0  00000+0 0  9991
2 39127   0.0234 286.9487 0001930 164.6737 157.9469  1.00272596 48346
TELSTAR 12V             
1 41036U 15068A   26177.16365942 -.00000108  00000+0  00000+0 0  9991
2 41036   0.0176 333.8107 0002453 123.0217 221.3892  1.00273312 38710
VIASAT-2                
1 42740U 17029A   26175.22767060 -.00000258  00000+0  00000+0 0  9991
2 42740   0.0153 301.1892 0000353 112.3888 230.8800  1.00272341 33270
LEO 1 (LEO VANTAGE 1)   
1 43113U 18004C   26176.70303859  .00004756  00000+0  32752-3 0  9995
2 43113  99.2429  96.1033 0350953  53.4290 309.8671 14.67860978438734
TELSTAR 19V             
1 43562U 18059A   26177.14350500 -.00000269  00000+0  00000+0 0  9990
2 43562   0.0107  83.0521 0002983  32.3083 147.5694  1.00270750 29234
TELSTAR 18V             
1 43611U 18069A   26176.98007881 -.00000283  00000+0  00000+0 0  9994
2 43611   0.0164 329.6094 0002123 122.9973 312.3188  1.00270510 28723
AMOS-17                 
1 44479U 19050A   26177.16998611  .00000120  00000+0  00000+0 0  9998
2 44479   0.0277 312.3632 0002166 170.5486 229.5667  1.00271965 25276
